MALLIGYONG-1            
1 58400U 23179A   23359.81661225  .00008157  00000+0  36281-3 0  9995
2 58400  97.4266 244.1412 0016395 152.2953 207.9160 15.21633910  5205
